DUBAISAT-1              
1 35682U 09041B   26160.62752568  .00000740  00000+0  11710-3 0  9997
2 35682  98.0043 293.9687 0011760  95.1199 265.1353 14.75111916903983
OCEANSAT-2              
1 35931U 09051A   26160.90799832  .00000057  00000+0  64781-4 0  9999
2 35931  98.2324 148.4855 0014715 258.2970 101.6546 13.99664410878310
WORLDVIEW-2 (WV-2)      
1 35946U 09055A   26160.78767101  .00000089  00000+0  44061-4 0  9993
2 35946  98.4736 234.3391 0003321 234.7886 125.2991 14.37897233874586
SMOS                    
1 36036U 09059A   26160.75348920  .00000232  00000+0  87750-4 0  9991
2 36036  98.4426 348.1974 0001331  89.4460 270.6880 14.39768569872385
YAOGAN-7                
1 36110U 09069A   26160.64182954  .00000459  00000+0  70576-4 0  9995
2 36110  98.0082  46.5552 0025889  65.0609 295.3287 14.78002257888517
TANDEM-X                
1 36605U 10030A   26160.28753286  .00000776  00000+0  40127-4 0  9997
2 36605  97.4454 168.1075 0001902  90.0350 270.1102 15.19149708885449
CARTOSAT-2B             
1 36795U 10035A   26160.96365086  .00000524  00000+0  78685-4 0  9995
2 36795  97.9956 211.5593 0010599 208.2494 151.8144 14.78651741858780
YAOGAN-10               
1 36834U 10038A   26160.95093818  .00001028  00000+0  12589-3 0  9992
2 36834  97.8984 184.4129 0001637  90.4375  24.2539 14.85325314856139
COSMO-SKYMED 4          
1 37216U 10060A   26159.39731509  .00000510  00000+0  70656-4 0  9999
2 37216  97.8890 343.1246 0001413  83.8256 276.3118 14.82162251843269
RESOURCESAT-2           
1 37387U 11015A   26160.76921282  .00000045  00000+0  40692-4 0  9991
2 37387  98.7644 228.2620 0010130 279.4464  80.5568 14.21604818785121
HAIYANG-2A              
1 37781U 11043A   26160.39491309  .00000278  00000+0  33935-3 0  9990
2 37781  99.3399 163.2429 0006307 106.3298 253.8545 13.74551006745585
RASAT                   
1 37791U 11044D   26160.96354435  .00000130  00000+0  31093-4 0  9994
2 37791  98.0566 252.4706 0019661 212.3451 263.6958 14.68158468792121
SRMSAT                  
1 37841U 11058D   26160.53493752  .00000362  00000+0  52397-4 0  9991
2 37841  19.9710 105.7844 0011936 119.8301  40.8059 14.11573956756730
PLEIADES 1A             
1 38012U 11076F   26160.93159171  .00000149  00000+0  41972-4 0  9990
2 38012  98.1972 236.1317 0001535  97.9327  11.3467 14.58566144770938
ZIYUAN 1-02C (ZY 1-02C) 
1 38038U 11079A   26160.98729684  .00000218  00000+0  85974-4 0  9995
2 38038  98.4070 228.4460 0005964 340.8624 122.2319 14.38208505758173
ARIRANG-3 (KOMPSAT-3)   
1 38338U 12025B   26160.98434404  .00000374  00000+0  83495-4 0  9992
2 38338  98.1174 118.5688 0006376 127.7622 232.4158 14.62199860750297
EXACTVIEW-1 (ADS-1B)    
1 38709U 12039C   26160.58728934  .00000102  00000+0  63464-4 0  9992
2 38709  98.9768 277.8061 0010754 188.0392 172.0616 14.24982376721622
SPOT 6                  
1 38755U 12047A   26160.92608616  .00000189  00000+0  50554-4 0  9995
2 38755  98.2117 228.3198 0001428  91.4976 268.6387 14.58558449731994
PLEIADES 1B             
1 39019U 12068A   26160.94499023  .00000219  00000+0  56971-4 0  9997
2 39019  98.1942 236.0963 0001585  93.6958 266.4422 14.58556006719794
GOKTURK 2               
1 39030U 12073A   26160.89259812  .00000204  00000+0  36865-4 0  9994
2 39030  97.6829 358.6901 0001866  59.7728 300.3667 14.75534888723436
LANDSAT 8               
1 39084U 13008A   26160.81435681  .00000260  00000+0  67817-4 0  9997
2 39084  98.2302 231.0370 0001465  95.8410 264.2956 14.57113746696823
SARAL                   
1 39086U 13009A   26160.77851705  .00000074  00000+0  43020-4 0  9997
2 39086  98.5558 347.4398 0001113 346.6515  13.4640 14.32854074694546
GAOFEN-1                
1 39150U 13018A   26160.94743853 -.00000430  00000+0 -54213-4 0  9996
2 39150  97.9093 233.1620 0015840 292.1301  67.8227 14.76526408707177
VNREDSAT 1              
1 39160U 13021B   26160.98506370  .00000455  00000+0  93746-4 0  9995
2 39160  97.9083 214.6779 0001683  89.8016 270.3380 14.64849225699230
ARIRANG-5 (KOMPSAT-5)   
1 39227U 13042A   26159.98539375  .00001848  00000+0  13611-3 0  9990
2 39227  97.6218 346.8017 0004248 139.4546 220.6997 15.04559791702625
SKYSAT-A                
1 39418U 13066C   26160.84991794  .00002396  00000+0  13893-3 0  9993
2 39418  97.3820 210.4807 0020764 344.1295  15.9284 15.12935781687377
DUBAISAT-2              
1 39419U 13066D   26160.91470237  .00004572  00000+0  28374-3 0  9994
2 39419  97.4568 151.2492 0012699  62.9615 297.2909 15.10129770685298
GPM-CORE                
1 39574U 14009C   26160.82826984  .00006773  00000+0  14555-3 0  9999
2 39574  64.9729 332.7742 0012096 270.5737  89.4018 15.45465096696673
SENTINEL-1A             
1 39634U 14016A   26160.89321222  .00000159  00000+0  43486-4 0  9994
2 39634  98.1784 168.5324 0001427  83.8514 276.2849 14.59200798648951
KAZEOSAT 1              
1 39731U 14024A   26160.94445593  .00000068  00000+0  33642-4 0  9997
2 39731  98.3202 233.5716 0001463  75.6582 284.4770 14.42076956637511
