OBJECT_NAME,OBJECT_ID,EPOCH,MEAN_MOTION,ECCENTRICITY,INCLINATION,RA_OF_ASC_NODE,ARG_OF_PERICENTER,MEAN_ANOMALY,EPHEMERIS_TYPE,CLASSIFICATION_TYPE,NORAD_CAT_ID,ELEMENT_SET_NO,REV_AT_EPOCH,BSTAR,MEAN_MOTION_DOT,MEAN_MOTION_DDOT
DUBAISAT-1,2009-041B,2026-06-09T15:03:38.218752,14.75111916,.00117603,98.0043,293.9687,95.1199,265.1353,0,U,35682,999,90398,.11710114E-3,.74E-5,0
OCEANSAT-2,2009-051A,2026-06-09T21:47:31.054848,13.99664410,.00147152,98.2324,148.4855,258.2970,101.6546,0,U,35931,999,87831,.64780584E-4,.57E-6,0
WORLDVIEW-2 (WV-2),2009-055A,2026-06-09T18:54:14.775264,14.37897233,.00033211,98.4736,234.3391,234.7886,125.2991,0,U,35946,999,87458,.44060538E-4,.89E-6,0
SMOS,2009-059A,2026-06-09T18:05:01.466880,14.39768569,.00013319,98.4426,348.1974,89.4460,270.6880,0,U,36036,999,87238,.87750172E-4,.232E-5,0
YAOGAN-7,2009-069A,2026-06-09T15:24:14.072256,14.78002257,.00258897,98.0082,46.5552,65.0609,295.3287,0,U,36110,999,88851,.70576219E-4,.459E-5,0
TANDEM-X,2010-030A,2026-06-09T06:54:02.839104,15.19149708,.00019024,97.4454,168.1075,90.0350,270.1102,0,U,36605,999,88544,.40127109E-4,.776E-5,0
CARTOSAT-2B,2010-035A,2026-06-09T23:07:39.434304,14.78651741,.00105999,97.9956,211.5593,208.2494,151.8144,0,U,36795,999,85878,.78685384E-4,.524E-5,0
YAOGAN-10,2010-038A,2026-06-09T22:49:21.058752,14.85325314,.00016379,97.8984,184.4129,90.4375,24.2539,0,U,36834,999,85613,.12589053E-3,.1028E-4,0
COSMO-SKYMED 4,2010-060A,2026-06-08T09:32:08.023776,14.82162251,.00014135,97.8890,343.1246,83.8256,276.3118,0,U,37216,999,84326,.70656283E-4,.51E-5,0
RESOURCESAT-2,2011-015A,2026-06-09T18:27:39.987648,14.21604818,.00101306,98.7644,228.2620,279.4464,80.5568,0,U,37387,999,78512,.4069156E-4,.45E-6,0
HAIYANG-2A,2011-043A,2026-06-09T09:28:40.490976,13.74551006,.00063077,99.3399,163.2429,106.3298,253.8545,0,U,37781,999,74558,.33934945E-3,.278E-5,0
RASAT,2011-044D,2026-06-09T23:07:30.231840,14.68158468,.00196612,98.0566,252.4706,212.3451,263.6958,0,U,37791,999,79212,.31093065E-4,.13E-5,0
SRMSAT,2011-058D,2026-06-09T12:50:18.601728,14.11573956,.00119361,19.9710,105.7844,119.8301,40.8059,0,U,37841,999,75673,.52396644E-4,.362E-5,0
PLEIADES 1A,2011-076F,2026-06-09T22:21:29.523744,14.58566144,.00015359,98.1972,236.1317,97.9327,11.3467,0,U,38012,999,77093,.41972212E-4,.149E-5,0
ZIYUAN 1-02C (ZY 1-02C),2011-079A,2026-06-09T23:41:42.446976,14.38208505,.00059646,98.4070,228.4460,340.8624,122.2319,0,U,38038,999,75817,.85973635E-4,.218E-5,0
ARIRANG-3 (KOMPSAT-3),2012-025B,2026-06-09T23:37:27.325056,14.62199860,.00063766,98.1174,118.5688,127.7622,232.4158,0,U,38338,999,75029,.83494641E-4,.374E-5,0
EXACTVIEW-1 (ADS-1B),2012-039C,2026-06-09T14:05:41.798976,14.24982376,.00107544,98.9768,277.8061,188.0392,172.0616,0,U,38709,999,72162,.63463568E-4,.102E-5,0
SPOT 6,2012-047A,2026-06-09T22:13:33.844224,14.58558449,.00014289,98.2117,228.3198,91.4976,268.6387,0,U,38755,999,73199,.50554158E-4,.189E-5,0
PLEIADES 1B,2012-068A,2026-06-09T22:40:47.155872,14.58556006,.00015853,98.1942,236.0963,93.6958,266.4422,0,U,39019,999,71979,.56971498E-4,.219E-5,0
GOKTURK 2,2012-073A,2026-06-09T21:25:20.477568,14.75534888,.00018667,97.6829,358.6901,59.7728,300.3667,0,U,39030,999,72343,.3686506E-4,.204E-5,0
LANDSAT 8,2013-008A,2026-06-09T19:32:40.428384,14.57113746,.00014659,98.2302,231.0370,95.8410,264.2956,0,U,39084,999,69682,.67817499E-4,.26E-5,0
SARAL,2013-009A,2026-06-09T18:41:03.873120,14.32854074,.00011135,98.5558,347.4398,346.6515,13.4640,0,U,39086,999,69454,.43019509E-4,.74E-6,0
GAOFEN-1,2013-018A,2026-06-09T22:44:18.688992,14.76526408,.00158405,97.9093,233.1620,292.1301,67.8227,0,U,39150,999,70717,-.54212647E-4,-.43E-5,0
VNREDSAT 1,2013-021B,2026-06-09T23:38:29.503680,14.64849225,.00016837,97.9083,214.6779,89.8016,270.3380,0,U,39160,999,69923,.93746326E-4,.455E-5,0
ARIRANG-5 (KOMPSAT-5),2013-042A,2026-06-08T23:38:58.020000,15.04559791,.0004248,97.6218,346.8017,139.4546,220.6997,0,U,39227,999,70262,.13610837E-3,.1848E-4,0
SKYSAT-A,2013-066C,2026-06-09T20:23:52.910016,15.12935781,.00207641,97.3820,210.4807,344.1295,15.9284,0,U,39418,999,68737,.1389287E-3,.2396E-4,0
DUBAISAT-2,2013-066D,2026-06-09T21:57:10.284768,15.10129770,.00126999,97.4568,151.2492,62.9615,297.2909,0,U,39419,999,68529,.28373941E-3,.4572E-4,0
GPM-CORE,2014-009C,2026-06-09T19:52:42.514176,15.45465096,.00120961,64.9729,332.7742,270.5737,89.4018,0,U,39574,999,69667,.14554612E-3,.6773E-4,0
SENTINEL-1A,2014-016A,2026-06-09T21:26:13.535808,14.59200798,.00014278,98.1784,168.5324,83.8514,276.2849,0,U,39634,999,64895,.43486032E-4,.159E-5,0
KAZEOSAT 1,2014-024A,2026-06-09T22:40:00.992352,14.42076956,.00014635,98.3202,233.5716,75.6582,284.4770,0,U,39731,999,63751,.33641598E-4,.68E-6,0
